[
  {
    "OBJECT_NAME": "STARLINK-4530",
    "OBJECT_ID": "2022-097F",
    "EPOCH": "2023-03-08T05:50:12.572448",
    "MEAN_MOTION": 15.08858898,
    "ECCENTRICITY": 0.0001407,
    "INCLINATION": 53.2167,
    "RA_OF_ASC_NODE": 10.7481,
    "ARG_OF_PERICENTER": 71.5194,
    "MEAN_ANOMALY": 288.5951,
    "EPHEMERIS_TYPE": 0,
    "CLASSIFICATION_TYPE": "U",
    "NORAD_CAT_ID": 53393,
    "ELEMENT_SET_NO": 999,
    "REV_AT_EPOCH": 3234,
    "BSTAR": 0.001319,
    "MEAN_MOTION_DOT": 0.00020777,
    "MEAN_MOTION_DDOT": 0
  },
  {
    "OBJECT_NAME": "STARLINK-4544",
    "OBJECT_ID": "2022-097G",
    "EPOCH": "2023-03-08T03:19:10.911936",
    "MEAN_MOTION": 15.08947031,
    "ECCENTRICITY": 0.0001081,
    "INCLINATION": 53.2175,
    "RA_OF_ASC_NODE": 0.9968,
    "ARG_OF_PERICENTER": 65.9764,
    "MEAN_ANOMALY": 294.1341,
    "EPHEMERIS_TYPE": 0,
    "CLASSIFICATION_TYPE": "U",
    "NORAD_CAT_ID": 53394,
    "ELEMENT_SET_NO": 999,
    "REV_AT_EPOCH": 3247,
    "BSTAR": 0.0021805,
    "MEAN_MOTION_DOT": 0.00034688,
    "MEAN_MOTION_DDOT": 0
  },
  {
    "OBJECT_NAME": "STARLINK-4534",
    "OBJECT_ID": "2022-097H",
    "EPOCH": "2023-03-08T05:39:36.386784",
    "MEAN_MOTION": 15.08862924,
    "ECCENTRICITY": 0.0001515,
    "INCLINATION": 53.2165,
    "RA_OF_ASC_NODE": 10.7798,
    "ARG_OF_PERICENTER": 60.0804,
    "MEAN_ANOMALY": 300.0338,
    "EPHEMERIS_TYPE": 0,
    "CLASSIFICATION_TYPE": "U",
    "NORAD_CAT_ID": 53395,
    "ELEMENT_SET_NO": 999,
    "REV_AT_EPOCH": 3234,
    "BSTAR": 0.0019593,
    "MEAN_MOTION_DOT": 0.00031052,
    "MEAN_MOTION_DDOT": 0
  },
  {
    "OBJECT_NAME": "STARLINK-4524",
    "OBJECT_ID": "2022-097J",
    "EPOCH": "2023-03-08T03:43:01.614720",
    "MEAN_MOTION": 15.08850954,
    "ECCENTRICITY": 8.59e-5,
    "INCLINATION": 53.2171,
    "RA_OF_ASC_NODE": 11.15,
    "ARG_OF_PERICENTER": 88.2288,
    "MEAN_ANOMALY": 271.8803,
    "EPHEMERIS_TYPE": 0,
    "CLASSIFICATION_TYPE": "U",
    "NORAD_CAT_ID": 53396,
    "ELEMENT_SET_NO": 999,
    "REV_AT_EPOCH": 3233,
    "BSTAR": 0.0010696,
    "MEAN_MOTION_DOT": 0.00016781,
    "MEAN_MOTION_DDOT": 0
  },
  {
    "OBJECT_NAME": "STARLINK-4515",
    "OBJECT_ID": "2022-097K",
    "EPOCH": "2023-03-08T03:58:55.256448",
    "MEAN_MOTION": 15.08860933,
    "ECCENTRICITY": 0.0001525,
    "INCLINATION": 53.2163,
    "RA_OF_ASC_NODE": 11.1027,
    "ARG_OF_PERICENTER": 72.7322,
    "MEAN_ANOMALY": 287.3837,
    "EPHEMERIS_TYPE": 0,
    "CLASSIFICATION_TYPE": "U",
    "NORAD_CAT_ID": 53397,
    "ELEMENT_SET_NO": 999,
    "REV_AT_EPOCH": 3233,
    "BSTAR": 0.002078,
    "MEAN_MOTION_DOT": 0.00032957,
    "MEAN_MOTION_DDOT": 0
  },
  {
    "OBJECT_NAME": "STARLINK-4512",
    "OBJECT_ID": "2022-097L",
    "EPOCH": "2023-03-08T05:07:48.419040",
    "MEAN_MOTION": 15.08894275,
    "ECCENTRICITY": 9.13e-5,
    "INCLINATION": 53.218,
    "RA_OF_ASC_NODE": 10.8822,
    "ARG_OF_PERICENTER": 99.1821,
    "MEAN_ANOMALY": 260.9275,
    "EPHEMERIS_TYPE": 0,
    "CLASSIFICATION_TYPE": "U",
    "NORAD_CAT_ID": 53398,
    "ELEMENT_SET_NO": 999,
    "REV_AT_EPOCH": 3234,
    "BSTAR": 0.0030669,
    "MEAN_MOTION_DOT": 0.00048933,
    "MEAN_MOTION_DDOT": 0
  },
  {
    "OBJECT_NAME": "STARLINK-4528",
    "OBJECT_ID": "2022-097M",
    "EPOCH": "2023-03-08T05:23:42.312192",
    "MEAN_MOTION": 15.08883061,
    "ECCENTRICITY": 0.0001184,
    "INCLINATION": 53.2164,
    "RA_OF_ASC_NODE": 10.8373,
    "ARG_OF_PERICENTER": 80.6202,
    "MEAN_ANOMALY": 279.4924,
    "EPHEMERIS_TYPE": 0,
    "CLASSIFICATION_TYPE": "U",
    "NORAD_CAT_ID": 53399,
    "ELEMENT_SET_NO": 999,
    "REV_AT_EPOCH": 3234,
    "BSTAR": 0.0020684,
    "MEAN_MOTION_DOT": 0.00032823,
    "MEAN_MOTION_DDOT": 0
  },
  {
    "OBJECT_NAME": "STARLINK-4520",
    "OBJECT_ID": "2022-097N",
    "EPOCH": "2023-03-07T20:54:59.720256",
    "MEAN_MOTION": 15.08849657,
    "ECCENTRICITY": 0.0001696,
    "INCLINATION": 53.2179,
    "RA_OF_ASC_NODE": 12.422,
    "ARG_OF_PERICENTER": 46.8253,
    "MEAN_ANOMALY": 313.2881,
    "EPHEMERIS_TYPE": 0,
    "CLASSIFICATION_TYPE": "U",
    "NORAD_CAT_ID": 53400,
    "ELEMENT_SET_NO": 999,
    "REV_AT_EPOCH": 3229,
    "BSTAR": 0.0014222,
    "MEAN_MOTION_DOT": 0.00022425,
    "MEAN_MOTION_DDOT": 0
  },
  {
    "OBJECT_NAME": "STARLINK-4525",
    "OBJECT_ID": "2022-097P",
    "EPOCH": "2023-03-07T19:40:47.787456",
    "MEAN_MOTION": 15.08825771,
    "ECCENTRICITY": 0.0001724,
    "INCLINATION": 53.2171,
    "RA_OF_ASC_NODE": 12.654,
    "ARG_OF_PERICENTER": 82.9597,
    "MEAN_ANOMALY": 277.1591,
    "EPHEMERIS_TYPE": 0,
    "CLASSIFICATION_TYPE": "U",
    "NORAD_CAT_ID": 53401,
    "ELEMENT_SET_NO": 999,
    "REV_AT_EPOCH": 3277,
    "BSTAR": 0.0010774,
    "MEAN_MOTION_DOT": 0.00016894,
    "MEAN_MOTION_DDOT": 0
  },
  {
    "OBJECT_NAME": "STARLINK-4499",
    "OBJECT_ID": "2022-097Q",
    "EPOCH": "2023-03-08T04:46:37.601184",
    "MEAN_MOTION": 15.08845928,
    "ECCENTRICITY": 0.0001403,
    "INCLINATION": 53.2205,
    "RA_OF_ASC_NODE": 10.9482,
    "ARG_OF_PERICENTER": 83.0946,
    "MEAN_ANOMALY": 277.0205,
    "EPHEMERIS_TYPE": 0,
    "CLASSIFICATION_TYPE": "U",
    "NORAD_CAT_ID": 53402,
    "ELEMENT_SET_NO": 999,
    "REV_AT_EPOCH": 3234,
    "BSTAR": 0.0010313,
    "MEAN_MOTION_DOT": 0.00016166,
    "MEAN_MOTION_DDOT": 0
  },
  {
    "OBJECT_NAME": "STARLINK-4507",
    "OBJECT_ID": "2022-097R",
    "EPOCH": "2023-03-08T05:03:53.260704",
    "MEAN_MOTION": 15.0886799,
    "ECCENTRICITY": 3.68e-5,
    "INCLINATION": 53.2183,
    "RA_OF_ASC_NODE": 10.8927,
    "ARG_OF_PERICENTER": 82.9794,
    "MEAN_ANOMALY": 277.124,
    "EPHEMERIS_TYPE": 0,
    "CLASSIFICATION_TYPE": "U",
    "NORAD_CAT_ID": 53403,
    "ELEMENT_SET_NO": 999,
    "REV_AT_EPOCH": 3234,
    "BSTAR": 0.0016185,
    "MEAN_MOTION_DOT": 0.00025584,
    "MEAN_MOTION_DDOT": 0
  },
  {
    "OBJECT_NAME": "STARLINK-4509",
    "OBJECT_ID": "2022-097S",
    "EPOCH": "2023-03-08T04:32:02.375232",
    "MEAN_MOTION": 15.08887587,
    "ECCENTRICITY": 0.0001264,
    "INCLINATION": 53.2185,
    "RA_OF_ASC_NODE": 0.9929,
    "ARG_OF_PERICENTER": 76.4613,
    "MEAN_ANOMALY": 283.652,
    "EPHEMERIS_TYPE": 0,
    "CLASSIFICATION_TYPE": "U",
    "NORAD_CAT_ID": 53404,
    "ELEMENT_SET_NO": 999,
    "REV_AT_EPOCH": 3247,
    "BSTAR": 0.002821,
    "MEAN_MOTION_DOT": 0.00044953,
    "MEAN_MOTION_DDOT": 0
  },
  {
    "OBJECT_NAME": "STARLINK-4510",
    "OBJECT_ID": "2022-097T",
    "EPOCH": "2023-03-08T03:05:55.846176",
    "MEAN_MOTION": 15.08852551,
    "ECCENTRICITY": 8.24e-5,
    "INCLINATION": 53.2175,
    "RA_OF_ASC_NODE": 11.2632,
    "ARG_OF_PERICENTER": 97.016,
    "MEAN_ANOMALY": 263.0926,
    "EPHEMERIS_TYPE": 0,
    "CLASSIFICATION_TYPE": "U",
    "NORAD_CAT_ID": 53405,
    "ELEMENT_SET_NO": 999,
    "REV_AT_EPOCH": 3233,
    "BSTAR": 0.0011571,
    "MEAN_MOTION_DOT": 0.00018182,
    "MEAN_MOTION_DDOT": 0
  },
  {
    "OBJECT_NAME": "STARLINK-4533",
    "OBJECT_ID": "2022-097U",
    "EPOCH": "2023-03-08T02:30:09.748800",
    "MEAN_MOTION": 15.08851374,
    "ECCENTRICITY": 0.0001037,
    "INCLINATION": 53.2181,
    "RA_OF_ASC_NODE": 1.371,
    "ARG_OF_PERICENTER": 62.6289,
    "MEAN_ANOMALY": 297.4809,
    "EPHEMERIS_TYPE": 0,
    "CLASSIFICATION_TYPE": "U",
    "NORAD_CAT_ID": 53406,
    "ELEMENT_SET_NO": 999,
    "REV_AT_EPOCH": 3246,
    "BSTAR": 0.0013796,
    "MEAN_MOTION_DOT": 0.00021743,
    "MEAN_MOTION_DDOT": 0
  },
  {
    "OBJECT_NAME": "STARLINK-4537",
    "OBJECT_ID": "2022-097V",
    "EPOCH": "2023-03-08T04:17:29.088096",
    "MEAN_MOTION": 15.08868897,
    "ECCENTRICITY": 0.0001257,
    "INCLINATION": 53.2187,
    "RA_OF_ASC_NODE": 351.2709,
    "ARG_OF_PERICENTER": 93.0935,
    "MEAN_ANOMALY": 267.0201,
    "EPHEMERIS_TYPE": 0,
    "CLASSIFICATION_TYPE": "U",
    "NORAD_CAT_ID": 53407,
    "ELEMENT_SET_NO": 999,
    "REV_AT_EPOCH": 3261,
    "BSTAR": 4.6033e-5,
    "MEAN_MOTION_DOT": 4.45e-6,
    "MEAN_MOTION_DDOT": 0
  },
  {
    "OBJECT_NAME": "STARLINK-4491",
    "OBJECT_ID": "2022-097W",
    "EPOCH": "2023-03-08T05:56:49.879392",
    "MEAN_MOTION": 15.08872228,
    "ECCENTRICITY": 0.0001149,
    "INCLINATION": 53.2186,
    "RA_OF_ASC_NODE": 0.7275,
    "ARG_OF_PERICENTER": 77.8171,
    "MEAN_ANOMALY": 282.2949,
    "EPHEMERIS_TYPE": 0,
    "CLASSIFICATION_TYPE": "U",
    "NORAD_CAT_ID": 53408,
    "ELEMENT_SET_NO": 999,
    "REV_AT_EPOCH": 3248,
    "BSTAR": 0.0013626,
    "MEAN_MOTION_DOT": 0.00021483,
    "MEAN_MOTION_DDOT": 0
  },
  {
    "OBJECT_NAME": "STARLINK-4490",
    "OBJECT_ID": "2022-097X",
    "EPOCH": "2023-03-07T18:39:53.856288",
    "MEAN_MOTION": 15.08848194,
    "ECCENTRICITY": 0.0002303,
    "INCLINATION": 53.2173,
    "RA_OF_ASC_NODE": 353.034,
    "ARG_OF_PERICENTER": 98.4462,
    "MEAN_ANOMALY": 261.6791,
    "EPHEMERIS_TYPE": 0,
    "CLASSIFICATION_TYPE": "U",
    "NORAD_CAT_ID": 53409,
    "ELEMENT_SET_NO": 999,
    "REV_AT_EPOCH": 3304,
    "BSTAR": 0.0012987,
    "MEAN_MOTION_DOT": 0.00020446,
    "MEAN_MOTION_DDOT": 0
  },
  {
    "OBJECT_NAME": "STARLINK-4492",
    "OBJECT_ID": "2022-097Y",
    "EPOCH": "2023-03-08T04:16:08.306688",
    "MEAN_MOTION": 15.08871098,
    "ECCENTRICITY": 9.13e-5,
    "INCLINATION": 53.2193,
    "RA_OF_ASC_NODE": 1.0416,
    "ARG_OF_PERICENTER": 100.1847,
    "MEAN_ANOMALY": 259.9248,
    "EPHEMERIS_TYPE": 0,
    "CLASSIFICATION_TYPE": "U",
    "NORAD_CAT_ID": 53410,
    "ELEMENT_SET_NO": 999,
    "REV_AT_EPOCH": 3247,
    "BSTAR": 0.0026004,
    "MEAN_MOTION_DOT": 0.00041376,
    "MEAN_MOTION_DDOT": 0
  },
  {
    "OBJECT_NAME": "STARLINK-4497",
    "OBJECT_ID": "2022-097Z",
    "EPOCH": "2023-03-08T06:02:07.756224",
    "MEAN_MOTION": 15.08862267,
    "ECCENTRICITY": 2.31e-5,
    "INCLINATION": 53.2185,
    "RA_OF_ASC_NODE": 0.7129,
    "ARG_OF_PERICENTER": 89.26,
    "MEAN_ANOMALY": 270.8418,
    "EPHEMERIS_TYPE": 0,
    "CLASSIFICATION_TYPE": "U",
    "NORAD_CAT_ID": 53411,
    "ELEMENT_SET_NO": 999,
    "REV_AT_EPOCH": 3248,
    "BSTAR": 0.0014577,
    "MEAN_MOTION_DOT": 0.00023002,
    "MEAN_MOTION_DDOT": 0
  }
]
